ION SCV-004             
1 50993U 22002K   26135.14729571  .00003664  00000+0  12824-3 0  9993
2 50993  97.2856 193.4311 0009118 109.0313 251.1917 15.30101864240240
ETV-A1                  
1 51060U 22002CE  26135.33663184  .00006812  00000+0  17296-3 0  9993
2 51060  97.2899 201.7514 0006897 103.8112 256.3902 15.39956034240787
BRO-5                   
1 51061U 22002CF  26135.24940484  .00010155  00000+0  21330-3 0  9994
2 51061  97.3016 208.6727 0006577  93.7414 266.4588 15.45521006241168
LUDI TANCE 1-01A (L-SA*)
1 51284U 22007A   26135.30718027  .00000353  00000+0  43947-4 0  9997
2 51284  97.8090 143.1951 0001587  91.0071 269.1328 14.88415071233589
LUDI TANCE 1-01B (L-SA*)
1 51822U 22018A   26135.27355112  .00000321  00000+0  40444-4 0  9999
2 51822  97.8092 143.1579 0001628  92.9597 267.1807 14.88416175228810
JILIN-1 GAOFEN 03D15    
1 51839U 22019R   26135.27463782  .00231362  22178-4  67960-3 0  9998
2 51839  97.3650 230.9903 0006193 229.8859 130.1873 15.92674777234878
JILIN-1 GAOFEN 03D12    
1 51841U 22019T   26135.31148910  .00258838  27701-4  71337-3 0  9996
2 51841  97.3636 230.9744 0006171 222.2025 137.8775 15.93889929234880
2022-023F               
1 51951U 22023F   26135.27174083  .00011040  00000+0  44608-3 0  9999
2 51951  63.4487  25.3806 0128097 343.8981  15.8075 15.17906312232718
MERIDIAN 10             
1 52145U 22030A   26134.57360580  .00000271  00000+0  00000+0 0  9992
2 52145  62.6770 144.4037 6774769 272.8816  17.7201  2.00616231 30350
OMNI-L1                 
1 52157U 22033A   26135.17789674  .00001024  00000+0  13366-3 0  9994
2 52157  97.8395 214.9991 0006063  45.7997 314.3714 14.82617838222562
ENMAP                   
1 52159U 22033C   26135.26361028  .00000324  00000+0  55722-4 0  9990
2 52159  97.9791 217.9803 0001481  87.2587 272.8792 14.74958243221804
ARCSAT-1                
1 52161U 22033E   26135.20356375  .00007455  00000+0  12219-3 0  9991
2 52161  97.2747 227.0099 0003698 333.0119  27.0941 15.52759107230581
GLOBAL-18               
1 52196U 22034B   26135.14622703  .00011109  00000+0  24174-3 0  9998
2 52196  52.9827  54.3704 0005446 133.6195 226.5262 15.44833956231850
GAOFEN-3 03             
1 52200U 22035A   26135.27515789  .00000118  00000+0  49146-4 0  9999
2 52200  98.4073 144.3323 0001013  77.0156 283.1147 14.42219456216107
DAQI-1                  
1 52257U 22039A   26135.33379005  .00000255  00000+0  65836-4 0  9997
2 52257  98.1469  74.8675 0004126  17.9946 342.1399 14.57656689217150
BRO-6                   
1 52422U 22047AE  26135.26567627  .00018360  00000+0  34657-3 0  9993
2 52422  97.3402 225.7440 0005333 175.9651 184.1644 15.48495602226051
JILIN-1 GAOFEN 3D27     
1 52444U 22048B   26135.30193835  .00051794  00000+0  45707-3 0  9995
2 52444  97.5685 246.4578 0005517 163.3444 196.7999 15.68536497224316
JILIN-1 GAOFEN 3D28     
1 52445U 22048C   26135.28994909  .00060915  00000+0  49259-3 0  9995
2 52445  97.5626 246.4902 0004303 180.0732 180.0530 15.70634924224359
VIGORIDE-3              
1 52760U 22057AE  26135.32265457  .00003324  00000+0  12867-3 0  9995
2 52760  97.6555 274.4449 0007334 233.6897 126.3664 15.26912552220143
ION SCV-006             
1 52761U 22057AF  26135.26029678  .00006088  00000+0  13289-3 0  9991
2 52761  97.6057 282.3335 0016668 229.9651 130.0135 15.44472664221038
SHERPA-AC1              
1 52763U 22057AH  26135.29861171  .00004682  00000+0  13696-3 0  9998
2 52763  97.6641 283.1757 0007279 199.6964 160.3999 15.35772192220654
OMNI-L2                 
1 52771U 22057AR  26135.15868747  .00000818  00000+0  11096-3 0  9997
2 52771  97.4730 199.7357 0008270  77.9830 282.2311 14.81276122215502
STEP CUBE LAB-II        
1 52897U 22065D   26135.31326936  .00000440  00000+0  94568-4 0  9999
2 52897  98.2176 279.3255 0009715 123.3909 236.8224 14.63246816206699
RANDEV                  
1 52898U 22065E   26135.32301082  .00000430  00000+0  91992-4 0  9993
2 52898  98.2161 279.6722 0008969 123.2771 236.9291 14.63631817206449
SNUGLITE-II             
1 52899U 22065F   26134.34332046  .00000612  00000+0  12517-3 0  9996
2 52899  98.2157 279.2438 0008600 125.4812 234.7194 14.64280768206047
MIMAN                   
1 52900U 22065G   26134.37169904  .00000344  00000+0  78434-4 0  9996
2 52900  98.2213 277.0338 0008700 126.7919 233.4082 14.61804072205500
STARLINK-4362           
1 53043U 22077A   26135.03645139 -.00000705  00000+0 -44748-4 0  9995
2 53043  97.4923 315.2542 0001235 106.9308 253.2055 15.05650616210898
