OBJECT_NAME,OBJECT_ID,EPOCH,MEAN_MOTION,ECCENTRICITY,INCLINATION,RA_OF_ASC_NODE,ARG_OF_PERICENTER,MEAN_ANOMALY,EPHEMERIS_TYPE,CLASSIFICATION_TYPE,NORAD_CAT_ID,ELEMENT_SET_NO,REV_AT_EPOCH,BSTAR,MEAN_MOTION_DOT,MEAN_MOTION_DDOT
ION SCV-004,2022-002K,2026-05-15T03:32:06.349344,15.30101864,.00091187,97.2856,193.4311,109.0313,251.1917,0,U,50993,999,24024,.12823572E-3,.3664E-4,0
ETV-A1,2022-002CE,2026-05-15T08:04:44.990976,15.39956034,.00068979,97.2899,201.7514,103.8112,256.3902,0,U,51060,999,24078,.17296008E-3,.6812E-4,0
BRO-5,2022-002CF,2026-05-15T05:59:08.578176,15.45521006,.0006577,97.3016,208.6727,93.7414,266.4588,0,U,51061,999,24116,.21329519E-3,.10155E-3,0
LUDI TANCE 1-01A (L-SAR 01A),2022-007A,2026-05-15T07:22:20.375328,14.88415071,.00015873,97.8090,143.1951,91.0071,269.1328,0,U,51284,999,23358,.43947386E-4,.353E-5,0
LUDI TANCE 1-01B (L-SAR 01B),2022-018A,2026-05-15T06:33:54.816768,14.88416175,.00016287,97.8092,143.1579,92.9597,267.1807,0,U,51822,999,22881,.4044412E-4,.321E-5,0
JILIN-1 GAOFEN 03D15,2022-019R,2026-05-15T06:35:28.707648,15.92674777,.00061931,97.3650,230.9903,229.8859,130.1873,0,U,51839,999,23487,.67959889E-3,.231362E-2,.22177688E-4
JILIN-1 GAOFEN 03D12,2022-019T,2026-05-15T07:28:32.658240,15.93889929,.00061719,97.3636,230.9744,222.2025,137.8775,0,U,51841,999,23488,.71336947E-3,.258838E-2,.27700697E-4
2022-023F,2022-023F,2026-05-15T06:31:18.407712,15.17906312,.01280974,63.4487,25.3806,343.8981,15.8075,0,U,51951,999,23271,.44607687E-3,.1104E-3,0
MERIDIAN 10,2022-030A,2026-05-14T13:45:59.541120,2.00616231,.67747697,62.6770,144.4037,272.8816,17.7201,0,U,52145,999,3035,0,.271E-5,0
OMNI-L1,2022-033A,2026-05-15T04:16:10.278336,14.82617838,.00060637,97.8395,214.9991,45.7997,314.3714,0,U,52157,999,22256,.13366496E-3,.1024E-4,0
ENMAP,2022-033C,2026-05-15T06:19:35.928192,14.74958243,.00014814,97.9791,217.9803,87.2587,272.8792,0,U,52159,999,22180,.55722396E-4,.324E-5,0
ARCSAT-1,2022-033E,2026-05-15T04:53:07.908000,15.52759107,.00036989,97.2747,227.0099,333.0119,27.0941,0,U,52161,999,23058,.12219098E-3,.7455E-4,0
GLOBAL-18,2022-034B,2026-05-15T03:30:34.015392,15.44833956,.00054464,52.9827,54.3704,133.6195,226.5262,0,U,52196,999,23185,.24173654E-3,.11109E-3,0
GAOFEN-3 03,2022-035A,2026-05-15T06:36:13.641696,14.42219456,.00010134,98.4073,144.3323,77.0156,283.1147,0,U,52200,999,21610,.49145658E-4,.118E-5,0
DAQI-1,2022-039A,2026-05-15T08:00:39.460320,14.57656689,.00041268,98.1469,74.8675,17.9946,342.1399,0,U,52257,999,21715,.6583574E-4,.255E-5,0
BRO-6,2022-047AE,2026-05-15T06:22:34.429728,15.48495602,.00053337,97.3402,225.7440,175.9651,184.1644,0,U,52422,999,22605,.34656751E-3,.1836E-3,0
JILIN-1 GAOFEN 3D27,2022-048B,2026-05-15T07:14:47.473440,15.68536497,.00055175,97.5685,246.4578,163.3444,196.7999,0,U,52444,999,22431,.45707142E-3,.51794E-3,0
JILIN-1 GAOFEN 3D28,2022-048C,2026-05-15T06:57:31.601376,15.70634924,.00043038,97.5626,246.4902,180.0732,180.0530,0,U,52445,999,22435,.49258727E-3,.60915E-3,0
VIGORIDE-3,2022-057AE,2026-05-15T07:44:37.354848,15.26912552,.00073349,97.6555,274.4449,233.6897,126.3664,0,U,52760,999,22014,.12866567E-3,.3324E-4,0
ION SCV-006,2022-057AF,2026-05-15T06:14:49.641792,15.44472664,.00166683,97.6057,282.3335,229.9651,130.0135,0,U,52761,999,22103,.13289475E-3,.6088E-4,0
SHERPA-AC1,2022-057AH,2026-05-15T07:10:00.051744,15.35772192,.00072792,97.6641,283.1757,199.6964,160.3999,0,U,52763,999,22065,.13695959E-3,.4682E-4,0
OMNI-L2,2022-057AR,2026-05-15T03:48:30.597408,14.81276122,.00082707,97.4730,199.7357,77.9830,282.2311,0,U,52771,999,21550,.1109648E-3,.818E-5,0
STEP CUBE LAB-II,2022-065D,2026-05-15T07:31:06.472704,14.63246816,.00097155,98.2176,279.3255,123.3909,236.8224,0,U,52897,999,20669,.94568102E-4,.44E-5,0
RANDEV,2022-065E,2026-05-15T07:45:08.134848,14.63631817,.00089698,98.2161,279.6722,123.2771,236.9291,0,U,52898,999,20644,.91991758E-4,.43E-5,0
SNUGLITE-II,2022-065F,2026-05-14T08:14:22.887744,14.64280768,.00086005,98.2157,279.2438,125.4812,234.7194,0,U,52899,999,20604,.12517179E-3,.612E-5,0
MIMAN,2022-065G,2026-05-14T08:55:14.797056,14.61804072,.00087005,98.2213,277.0338,126.7919,233.4082,0,U,52900,999,20550,.78433623E-4,.344E-5,0
STARLINK-4362,2022-077A,2026-05-15T00:52:29.400096,15.05650616,.00012359,97.4923,315.2542,106.9308,253.2055,0,U,53043,999,21089,-.44748426E-4,-.705E-5,0
